CREW DRAGON 12          
1 67796U 26031A   26073.41792243  .00009990  00000+0  19399-3 0  9997
2 67796  51.6328  48.9797 0006389 189.6380 170.4486 15.48274195556964
STARLINK-36800          
1 67797U 26032A   26073.52162219  .00262714  00000+0  17011-2 0  9998
2 67797  97.2836 260.2415 0001772  75.4669 284.6793 15.75291859  5542
STARLINK-36798          
1 67798U 26032B   26073.56891425  .00258921  00000+0  16769-2 0  9995
2 67798  97.2842 260.3308 0002277  94.2222 265.9304 15.75296438  5556
STARLINK-36804          
1 67799U 26032C   26073.51985287  .00365547  00000+0  23343-2 0  9990
2 67799  97.2838 260.2438 0001682  70.3101 289.8346 15.75327802  5545
STARLINK-36354          
1 67800U 26032D   26073.50891727  .00202009  00000+0  13210-2 0  9992
2 67800  97.2844 260.2607 0001810  44.8478 315.2933 15.75231538  5545
STARLINK-36773          
1 67801U 26032E   26073.51667959  .00203645  00000+0  13314-2 0  9994
2 67801  97.2842 260.2481 0001281  52.5745 307.5637 15.75233448  5546
STARLINK-36739          
1 67802U 26032F   26073.49833312  .00106576  00000+0  70587-3 0  9991
2 67802  97.2844 260.2733 0001493  48.2165 311.9227 15.75211082  5546
STARLINK-36768          
1 67803U 26032G   26073.51068068  .00213424  00000+0  13934-2 0  9996
2 67803  97.2843 260.2556 0001582  75.3878 284.7562 15.75238183  5540
STARLINK-36792          
1 67804U 26032H   26073.51315061  .00210822  00000+0  13766-2 0  9997
2 67804  97.2843 260.2519 0001485  86.3387 273.8048 15.75241260  5547
STARLINK-36782          
1 67805U 26032J   26073.48843727  .00193365  00000+0  12611-2 0  9999
2 67805  97.2836 260.2862 0002051  81.7079 278.4419 15.75318748  5547
STARLINK-36389          
1 67806U 26032K   26073.50185928  .00177867  00000+0  11655-2 0  9991
2 67806  97.2838 260.2666 0001495  64.1241 296.0179 15.75253332  5545
STARLINK-36382          
1 67807U 26032L   26073.49974219  .00151241  00000+0  99505-3 0  9998
2 67807  97.2838 260.2689 0001183  47.2603 312.8762 15.75235543  5548
