CCSDS_OMM_VERS = 2.0
CREATION_DATE  = 
ORIGINATOR     = 

OBJECT_NAME    = CREW DRAGON 12
OBJECT_ID      = 2026-031A
CENTER_NAME    = EARTH
REF_FRAME      = TEME
TIME_SYSTEM    = UTC
MEAN_ELEMENT_THEORY = SGP/SGP4

EPOCH          = 2026-03-14T10:01:48.497952
MEAN_MOTION    = 15.48274195
ECCENTRICITY   = .00063896
INCLINATION    = 51.6328
RA_OF_ASC_NODE = 48.9797
ARG_OF_PERICENTER = 189.6380
MEAN_ANOMALY   = 170.4486

EPHEMERIS_TYPE = 0
CLASSIFICATION_TYPE = U
NORAD_CAT_ID   = 67796
ELEMENT_SET_NO = 999
REV_AT_EPOCH   = 55696
BSTAR          = .19399232E-3
MEAN_MOTION_DOT = .999E-4
MEAN_MOTION_DDOT = 0

CCSDS_OMM_VERS = 2.0
CREATION_DATE  = 
ORIGINATOR     = 

OBJECT_NAME    = STARLINK-36800
OBJECT_ID      = 2026-032A
CENTER_NAME    = EARTH
REF_FRAME      = TEME
TIME_SYSTEM    = UTC
MEAN_ELEMENT_THEORY = SGP/SGP4

EPOCH          = 2026-03-14T12:31:08.157216
MEAN_MOTION    = 15.75291859
ECCENTRICITY   = .00017727
INCLINATION    = 97.2836
RA_OF_ASC_NODE = 260.2415
ARG_OF_PERICENTER = 75.4669
MEAN_ANOMALY   = 284.6793

EPHEMERIS_TYPE = 0
CLASSIFICATION_TYPE = U
NORAD_CAT_ID   = 67797
ELEMENT_SET_NO = 999
REV_AT_EPOCH   = 554
BSTAR          = .17010738E-2
MEAN_MOTION_DOT = .262714E-2
MEAN_MOTION_DDOT = 0

CCSDS_OMM_VERS = 2.0
CREATION_DATE  = 
ORIGINATOR     = 

OBJECT_NAME    = STARLINK-36798
OBJECT_ID      = 2026-032B
CENTER_NAME    = EARTH
REF_FRAME      = TEME
TIME_SYSTEM    = UTC
MEAN_ELEMENT_THEORY = SGP/SGP4

EPOCH          = 2026-03-14T13:39:14.191200
MEAN_MOTION    = 15.75296438
ECCENTRICITY   = .00022771
INCLINATION    = 97.2842
RA_OF_ASC_NODE = 260.3308
ARG_OF_PERICENTER = 94.2222
MEAN_ANOMALY   = 265.9304

EPHEMERIS_TYPE = 0
CLASSIFICATION_TYPE = U
NORAD_CAT_ID   = 67798
ELEMENT_SET_NO = 999
REV_AT_EPOCH   = 555
BSTAR          = .16769127E-2
MEAN_MOTION_DOT = .258921E-2
MEAN_MOTION_DDOT = 0

CCSDS_OMM_VERS = 2.0
CREATION_DATE  = 
ORIGINATOR     = 

OBJECT_NAME    = STARLINK-36804
OBJECT_ID      = 2026-032C
CENTER_NAME    = EARTH
REF_FRAME      = TEME
TIME_SYSTEM    = UTC
MEAN_ELEMENT_THEORY = SGP/SGP4

EPOCH          = 2026-03-14T12:28:35.287968
MEAN_MOTION    = 15.75327802
ECCENTRICITY   = .00016821
INCLINATION    = 97.2838
RA_OF_ASC_NODE = 260.2438
ARG_OF_PERICENTER = 70.3101
MEAN_ANOMALY   = 289.8346

EPHEMERIS_TYPE = 0
CLASSIFICATION_TYPE = U
NORAD_CAT_ID   = 67799
ELEMENT_SET_NO = 999
REV_AT_EPOCH   = 554
BSTAR          = .2334323E-2
MEAN_MOTION_DOT = .365547E-2
MEAN_MOTION_DDOT = 0

CCSDS_OMM_VERS = 2.0
CREATION_DATE  = 
ORIGINATOR     = 

OBJECT_NAME    = STARLINK-36354
OBJECT_ID      = 2026-032D
CENTER_NAME    = EARTH
REF_FRAME      = TEME
TIME_SYSTEM    = UTC
MEAN_ELEMENT_THEORY = SGP/SGP4

EPOCH          = 2026-03-14T12:12:50.452128
MEAN_MOTION    = 15.75231538
ECCENTRICITY   = .00018104
INCLINATION    = 97.2844
RA_OF_ASC_NODE = 260.2607
ARG_OF_PERICENTER = 44.8478
MEAN_ANOMALY   = 315.2933

EPHEMERIS_TYPE = 0
CLASSIFICATION_TYPE = U
NORAD_CAT_ID   = 67800
ELEMENT_SET_NO = 999
REV_AT_EPOCH   = 554
BSTAR          = .13210447E-2
MEAN_MOTION_DOT = .202009E-2
MEAN_MOTION_DDOT = 0

CCSDS_OMM_VERS = 2.0
CREATION_DATE  = 
ORIGINATOR     = 

OBJECT_NAME    = STARLINK-36773
OBJECT_ID      = 2026-032E
CENTER_NAME    = EARTH
REF_FRAME      = TEME
TIME_SYSTEM    = UTC
MEAN_ELEMENT_THEORY = SGP/SGP4

EPOCH          = 2026-03-14T12:24:01.116576
MEAN_MOTION    = 15.75233448
ECCENTRICITY   = .00012819
INCLINATION    = 97.2842
RA_OF_ASC_NODE = 260.2481
ARG_OF_PERICENTER = 52.5745
MEAN_ANOMALY   = 307.5637

EPHEMERIS_TYPE = 0
CLASSIFICATION_TYPE = U
NORAD_CAT_ID   = 67801
ELEMENT_SET_NO = 999
REV_AT_EPOCH   = 554
BSTAR          = .13313925E-2
MEAN_MOTION_DOT = .203645E-2
MEAN_MOTION_DDOT = 0

CCSDS_OMM_VERS = 2.0
CREATION_DATE  = 
ORIGINATOR     = 

OBJECT_NAME    = STARLINK-36739
OBJECT_ID      = 2026-032F
CENTER_NAME    = EARTH
REF_FRAME      = TEME
TIME_SYSTEM    = UTC
MEAN_ELEMENT_THEORY = SGP/SGP4

EPOCH          = 2026-03-14T11:57:35.981568
MEAN_MOTION    = 15.75211082
ECCENTRICITY   = .00014938
INCLINATION    = 97.2844
RA_OF_ASC_NODE = 260.2733
ARG_OF_PERICENTER = 48.2165
MEAN_ANOMALY   = 311.9227

EPHEMERIS_TYPE = 0
CLASSIFICATION_TYPE = U
NORAD_CAT_ID   = 67802
ELEMENT_SET_NO = 999
REV_AT_EPOCH   = 554
BSTAR          = .70587131E-3
MEAN_MOTION_DOT = .106576E-2
MEAN_MOTION_DDOT = 0

CCSDS_OMM_VERS = 2.0
CREATION_DATE  = 
ORIGINATOR     = 

OBJECT_NAME    = STARLINK-36768
OBJECT_ID      = 2026-032G
CENTER_NAME    = EARTH
REF_FRAME      = TEME
TIME_SYSTEM    = UTC
MEAN_ELEMENT_THEORY = SGP/SGP4

EPOCH          = 2026-03-14T12:15:22.810752
MEAN_MOTION    = 15.75238183
ECCENTRICITY   = .00015821
INCLINATION    = 97.2843
RA_OF_ASC_NODE = 260.2556
ARG_OF_PERICENTER = 75.3878
MEAN_ANOMALY   = 284.7562

EPHEMERIS_TYPE = 0
CLASSIFICATION_TYPE = U
NORAD_CAT_ID   = 67803
ELEMENT_SET_NO = 999
REV_AT_EPOCH   = 554
BSTAR          = .13933787E-2
MEAN_MOTION_DOT = .213424E-2
MEAN_MOTION_DDOT = 0

CCSDS_OMM_VERS = 2.0
CREATION_DATE  = 
ORIGINATOR     = 

OBJECT_NAME    = STARLINK-36792
OBJECT_ID      = 2026-032H
CENTER_NAME    = EARTH
REF_FRAME      = TEME
TIME_SYSTEM    = UTC
MEAN_ELEMENT_THEORY = SGP/SGP4

EPOCH          = 2026-03-14T12:18:56.212704
MEAN_MOTION    = 15.75241260
ECCENTRICITY   = .00014854
INCLINATION    = 97.2843
RA_OF_ASC_NODE = 260.2519
ARG_OF_PERICENTER = 86.3387
MEAN_ANOMALY   = 273.8048

EPHEMERIS_TYPE = 0
CLASSIFICATION_TYPE = U
NORAD_CAT_ID   = 67804
ELEMENT_SET_NO = 999
REV_AT_EPOCH   = 554
BSTAR          = .13766434E-2
MEAN_MOTION_DOT = .210822E-2
MEAN_MOTION_DDOT = 0

CCSDS_OMM_VERS = 2.0
CREATION_DATE  = 
ORIGINATOR     = 

OBJECT_NAME    = STARLINK-36782
OBJECT_ID      = 2026-032J
CENTER_NAME    = EARTH
REF_FRAME      = TEME
TIME_SYSTEM    = UTC
MEAN_ELEMENT_THEORY = SGP/SGP4

EPOCH          = 2026-03-14T11:43:20.980128
MEAN_MOTION    = 15.75318748
ECCENTRICITY   = .00020512
INCLINATION    = 97.2836
RA_OF_ASC_NODE = 260.2862
ARG_OF_PERICENTER = 81.7079
MEAN_ANOMALY   = 278.4419

EPHEMERIS_TYPE = 0
CLASSIFICATION_TYPE = U
NORAD_CAT_ID   = 67805
ELEMENT_SET_NO = 999
REV_AT_EPOCH   = 554
BSTAR          = .12610615E-2
MEAN_MOTION_DOT = .193365E-2
MEAN_MOTION_DDOT = 0

CCSDS_OMM_VERS = 2.0
CREATION_DATE  = 
ORIGINATOR     = 

OBJECT_NAME    = STARLINK-36389
OBJECT_ID      = 2026-032K
CENTER_NAME    = EARTH
REF_FRAME      = TEME
TIME_SYSTEM    = UTC
MEAN_ELEMENT_THEORY = SGP/SGP4

EPOCH          = 2026-03-14T12:02:40.641792
MEAN_MOTION    = 15.75253332
ECCENTRICITY   = .0001495
INCLINATION    = 97.2838
RA_OF_ASC_NODE = 260.2666
ARG_OF_PERICENTER = 64.1241
MEAN_ANOMALY   = 296.0179

EPHEMERIS_TYPE = 0
CLASSIFICATION_TYPE = U
NORAD_CAT_ID   = 67806
ELEMENT_SET_NO = 999
REV_AT_EPOCH   = 554
BSTAR          = .11655012E-2
MEAN_MOTION_DOT = .177867E-2
MEAN_MOTION_DDOT = 0

CCSDS_OMM_VERS = 2.0
CREATION_DATE  = 
ORIGINATOR     = 

OBJECT_NAME    = STARLINK-36382
OBJECT_ID      = 2026-032L
CENTER_NAME    = EARTH
REF_FRAME      = TEME
TIME_SYSTEM    = UTC
MEAN_ELEMENT_THEORY = SGP/SGP4

EPOCH          = 2026-03-14T11:59:37.725216
MEAN_MOTION    = 15.75235543
ECCENTRICITY   = .00011832
INCLINATION    = 97.2838
RA_OF_ASC_NODE = 260.2689
ARG_OF_PERICENTER = 47.2603
MEAN_ANOMALY   = 312.8762

EPHEMERIS_TYPE = 0
CLASSIFICATION_TYPE = U
NORAD_CAT_ID   = 67807
ELEMENT_SET_NO = 999
REV_AT_EPOCH   = 554
BSTAR          = .99504657E-3
MEAN_MOTION_DOT = .151241E-2
MEAN_MOTION_DDOT = 0

